[Satellite]
VERSION=1.1
NAME=FLOCK 3P-70
NICKNAME=FLOCK 3P-70
TLE1=1 41980U 17008AJ  18020.94294779  .00002788  00000-0  11862-3 0  9996
TLE2=2 41980  97.4718  86.6905 0009383 144.1567 216.0301 15.23825230 51522
